{"type": "FeatureCollection", "features": [ {"type": "Feature", "properties": {"norad_id": 66829, "name": "STARLINK-36084", "group": "last-30-days", "lat": -38.8193597355124, "lon": 144.5070810869776, "alt_km": 413.2937819475037, "timestamp": "2025-12-26T04:40:04.511785+00:00", "meta": {"OBJECT_NAME": "STARLINK-36084", "OBJECT_ID": "2025-280J", "EPOCH": "2025-12-25T21:06:58.810176", "MEAN_MOTION": 15.52551023, "ECCENTRICITY": 0.00033066, "INCLINATION": 70.0006, "RA_OF_ASC_NODE": 162.4088, "ARG_OF_PERICENTER": 278.3915, "MEAN_ANOMALY": 81.6897, "EPHEMERIS_TYPE": 0, "CLASSIFICATION_TYPE": "U", "NORAD_CAT_ID": 66829, "ELEMENT_SET_NO": 999, "REV_AT_EPOCH": 497, "BSTAR": 0.0015123323, "MEAN_MOTION_DOT": 0.00094089, "MEAN_MOTION_DDOT": 0}, "tle": {"line1": "1 66829U 25280J   25359.87984734  .00094089  00000+0  15123-2 0  9995", "line2": "2 66829  70.0006 162.4088 0003306 278.3915  81.6897 15.52551023  4970"}}, "geometry": {"type": "Point", "coordinates": [144.5070810869776, -38.8193597355124]}}, {"type": "Feature", "properties": {"norad_id": 66830, "name": "STARLINK-35881", "group": "last-30-days", "lat": -35.34913592082812, "lon": 146.57035647495186, "alt_km": 413.14434876562063, "timestamp": "2025-12-26T04:40:04.511797+00:00", "meta": {"OBJECT_NAME": "STARLINK-35881", "OBJECT_ID": "2025-280K", "EPOCH": "2025-12-25T21:05:59.492256", "MEAN_MOTION": 15.52555671, "ECCENTRICITY": 0.00034325, "INCLINATION": 70.0006, "RA_OF_ASC_NODE": 162.406, "ARG_OF_PERICENTER": 277.7909, "MEAN_ANOMALY": 82.2888, "EPHEMERIS_TYPE": 0, "CLASSIFICATION_TYPE": "U", "NORAD_CAT_ID": 66830, "ELEMENT_SET_NO": 999, "REV_AT_EPOCH": 497, "BSTAR": 0.0016853684, "MEAN_MOTION_DOT": 0.00105038, "MEAN_MOTION_DDOT": 0}, "tle": {"line1": "1 66830U 25280K   25359.87916079  .00105038  00000+0  16854-2 0  9993", "line2": "2 66830  70.0006 162.4060 0003432 277.7909  82.2888 15.52555671  4978"}}, "geometry": {"type": "Point", "coordinates": [146.57035647495186, -35.34913592082812]}}, {"type": "Feature", "properties": {"norad_id": 66831, "name": "STARLINK-35788", "group": "last-30-days", "lat": -33.60174600437982, "lon": 147.53651014974028, "alt_km": 413.3526626055964, "timestamp": "2025-12-26T04:40:04.511807+00:00", "meta": {"OBJECT_NAME": "STARLINK-35788", "OBJECT_ID": "2025-280L", "EPOCH": "2025-12-25T21:05:29.815584", "MEAN_MOTION": 15.5255759, "ECCENTRICITY": 0.00031678, "INCLINATION": 70.0004, "RA_OF_ASC_NODE": 162.4058, "ARG_OF_PERICENTER": 273.4996, "MEAN_ANOMALY": 86.5829, "EPHEMERIS_TYPE": 0, "CLASSIFICATION_TYPE": "U", "NORAD_CAT_ID": 66831, "ELEMENT_SET_NO": 999, "REV_AT_EPOCH": 497, "BSTAR": 0.0016046748, "MEAN_MOTION_DOT": 0.0009994, "MEAN_MOTION_DDOT": 0}, "tle": {"line1": "1 66831U 25280L   25359.87881731  .00099940  00000+0  16047-2 0  9998", "line2": "2 66831  70.0004 162.4058 0003167 273.4996  86.5829 15.52557590  4972"}}, "geometry": {"type": "Point", "coordinates": [147.53651014974028, -33.60174600437982]}}, {"type": "Feature", "properties": {"norad_id": 66832, "name": "STARLINK-35768", "group": "last-30-days", "lat": -31.838119831410424, "lon": 148.4669263418551, "alt_km": 413.23624009384275, "timestamp": "2025-12-26T04:40:04.511817+00:00", "meta": {"OBJECT_NAME": "STARLINK-35768", "OBJECT_ID": "2025-280M", "EPOCH": "2025-12-25T21:05:00.102624", "MEAN_MOTION": 15.5256434, "ECCENTRICITY": 0.00034501, "INCLINATION": 70.0006, "RA_OF_ASC_NODE": 162.4034, "ARG_OF_PERICENTER": 271.1394, "MEAN_ANOMALY": 88.9398, "EPHEMERIS_TYPE": 0, "CLASSIFICATION_TYPE": "U", "NORAD_CAT_ID": 66832, "ELEMENT_SET_NO": 999, "REV_AT_EPOCH": 497, "BSTAR": 0.0017179112, "MEAN_MOTION_DOT": 0.00107131, "MEAN_MOTION_DDOT": 0}, "tle": {"line1": "1 66832U 25280M   25359.87847341  .00107131  00000+0  17179-2 0  9997", "line2": "2 66832  70.0006 162.4034 0003450 271.1394  88.9398 15.52564340  4979"}}, "geometry": {"type": "Point", "coordinates": [148.4669263418551, -31.838119831410424]}}, {"type": "Feature", "properties": {"norad_id": 66833, "name": "STARLINK-35858", "group": "last-30-days", "lat": -18.78842478937926, "lon": 154.40450486058822, "alt_km": 388.8267156032143, "timestamp": "2025-12-26T04:40:04.511827+00:00", "meta": {"OBJECT_NAME": "STARLINK-35858", "OBJECT_ID": "2025-280N", "EPOCH": "2025-12-25T19:30:53.978400", "MEAN_MOTION": 15.57235803, "ECCENTRICITY": 0.00088779, "INCLINATION": 70.0002, "RA_OF_ASC_NODE": 162.5768, "ARG_OF_PERICENTER": 250.0111, "MEAN_ANOMALY": 110.0123, "EPHEMERIS_TYPE": 0, "CLASSIFICATION_TYPE": "U", "NORAD_CAT_ID": 66833, "ELEMENT_SET_NO": 999, "REV_AT_EPOCH": 496, "BSTAR": 0.064491045, "MEAN_MOTION_DOT": 0.05535892, "MEAN_MOTION_DDOT": 0}, "tle": {"line1": "1 66833U 25280N   25359.81312475  .05535892  00000+0  64491-1 0  9999", "line2": "2 66833  70.0002 162.5768 0008877 250.0111 110.0123 15.57235803  4968"}}, "geometry": {"type": "Point", "coordinates": [154.40450486058822, -18.78842478937926]}}, {"type": "Feature", "properties": {"norad_id": 66834, "name": "STARLINK-35840", "group": "last-30-days", "lat": -28.342161671100094, "lon": 150.2036446851038, "alt_km": 413.11131622440917, "timestamp": "2025-12-26T04:40:04.511836+00:00", "meta": {"OBJECT_NAME": "STARLINK-35840", "OBJECT_ID": "2025-280P", "EPOCH": "2025-12-25T21:04:00.940224", "MEAN_MOTION": 15.52553813, "ECCENTRICITY": 0.00032359, "INCLINATION": 70.0006, "RA_OF_ASC_NODE": 162.4007, "ARG_OF_PERICENTER": 276.1183, "MEAN_ANOMALY": 83.9636, "EPHEMERIS_TYPE": 0, "CLASSIFICATION_TYPE": "U", "NORAD_CAT_ID": 66834, "ELEMENT_SET_NO": 999, "REV_AT_EPOCH": 497, "BSTAR": 0.0015369963, "MEAN_MOTION_DOT": 0.00095654, "MEAN_MOTION_DDOT": 0}, "tle": {"line1": "1 66834U 25280P   25359.87778866  .00095654  00000+0  15370-2 0  9991", "line2": "2 66834  70.0006 162.4007 0003235 276.1183  83.9636 15.52553813  4976"}}, "geometry": {"type": "Point", "coordinates": [150.2036446851038, -28.342161671100094]}}, {"type": "Feature", "properties": {"norad_id": 66835, "name": "STARLINK-35890", "group": "last-30-days", "lat": -26.577586476758253, "lon": 151.03252974319918, "alt_km": 413.0126363046793, "timestamp": "2025-12-26T04:40:04.511865+00:00", "meta": {"OBJECT_NAME": "STARLINK-35890", "OBJECT_ID": "2025-280Q", "EPOCH": "2025-12-25T21:03:31.364640", "MEAN_MOTION": 15.52555524, "ECCENTRICITY": 0.00031283, "INCLINATION": 70.0006, "RA_OF_ASC_NODE": 162.3991, "ARG_OF_PERICENTER": 278.5717, "MEAN_ANOMALY": 81.5115, "EPHEMERIS_TYPE": 0, "CLASSIFICATION_TYPE": "U", "NORAD_CAT_ID": 66835, "ELEMENT_SET_NO": 999, "REV_AT_EPOCH": 497, "BSTAR": 0.001514416, "MEAN_MOTION_DOT": 0.00094234, "MEAN_MOTION_DDOT": 0}, "tle": {"line1": "1 66835U 25280Q   25359.87744635  .00094234  00000+0  15144-2 0  9991", "line2": "2 66835  70.0006 162.3991 0003128 278.5717  81.5115 15.52555524  4975"}}, "geometry": {"type": "Point", "coordinates": [151.03252974319918, -26.577586476758253]}}, {"type": "Feature", "properties": {"norad_id": 66836, "name": "STARLINK-35838", "group": "last-30-days", "lat": -24.823879225846177, "lon": 151.8293063931286, "alt_km": 413.0530923222832, "timestamp": "2025-12-26T04:40:04.511877+00:00", "meta": {"OBJECT_NAME": "STARLINK-35838", "OBJECT_ID": "2025-280R", "EPOCH": "2025-12-25T21:03:01.764000", "MEAN_MOTION": 15.52545248, "ECCENTRICITY": 0.00031182, "INCLINATION": 70.0008, "RA_OF_ASC_NODE": 162.3975, "ARG_OF_PERICENTER": 277.1136, "MEAN_ANOMALY": 82.9697, "EPHEMERIS_TYPE": 0, "CLASSIFICATION_TYPE": "U", "NORAD_CAT_ID": 66836, "ELEMENT_SET_NO": 999, "REV_AT_EPOCH": 497, "BSTAR": 0.0012287886, "MEAN_MOTION_DOT": 0.00076227, "MEAN_MOTION_DDOT": 0}, "tle": {"line1": "1 66836U 25280R   25359.87710375  .00076227  00000+0  12288-2 0  9994", "line2": "2 66836  70.0008 162.3975 0003118 277.1136  82.9697 15.52545248  4971"}}, "geometry": {"type": "Point", "coordinates": [151.8293063931286, -24.823879225846177]}}, {"type": "Feature", "properties": {"norad_id": 66837, "name": "STARLINK-35729", "group": "last-30-days", "lat": -22.998268753225027, "lon": 152.63339688425606, "alt_km": 412.88282562898166, "timestamp": "2025-12-26T04:40:04.511889+00:00", "meta": {"OBJECT_NAME": "STARLINK-35729", "OBJECT_ID": "2025-280S", "EPOCH": "2025-12-25T21:02:31.871328", "MEAN_MOTION": 15.52568509, "ECCENTRICITY": 0.00035526, "INCLINATION": 70.0009, "RA_OF_ASC_NODE": 162.3962, "ARG_OF_PERICENTER": 272.3219, "MEAN_ANOMALY": 87.7562, "EPHEMERIS_TYPE": 0, "CLASSIFICATION_TYPE": "U", "NORAD_CAT_ID": 66837, "ELEMENT_SET_NO": 999, "REV_AT_EPOCH": 497, "BSTAR": 0.0016348551, "MEAN_MOTION_DOT": 0.00101893, "MEAN_MOTION_DDOT": 0}, "tle": {"line1": "1 66837U 25280S   25359.87675777  .00101893  00000+0  16349-2 0  9991", "line2": "2 66837  70.0009 162.3962 0003552 272.3219  87.7562 15.52568509  4979"}}, "geometry": {"type": "Point", "coordinates": [152.63339688425606, -22.998268753225027]}}, {"type": "Feature", "properties": {"norad_id": 66838, "name": "STARLINK-35886", "group": "last-30-days", "lat": -19.483369991582776, "lon": 154.11791305504812, "alt_km": 412.8889927311802, "timestamp": "2025-12-26T04:40:04.511900+00:00", "meta": {"OBJECT_NAME": "STARLINK-35886", "OBJECT_ID": "2025-280T", "EPOCH": "2025-12-25T21:01:32.623392", "MEAN_MOTION": 15.52533977, "ECCENTRICITY": 0.00033682, "INCLINATION": 70.0009, "RA_OF_ASC_NODE": 162.3932, "ARG_OF_PERICENTER": 273.797, "MEAN_ANOMALY": 86.2832, "EPHEMERIS_TYPE": 0, "CLASSIFICATION_TYPE": "U", "NORAD_CAT_ID": 66838, "ELEMENT_SET_NO": 999, "REV_AT_EPOCH": 497, "BSTAR": 0.001119108, "MEAN_MOTION_DOT": 0.00069322, "MEAN_MOTION_DDOT": 0}, "tle": {"line1": "1 66838U 25280T   25359.87607203  .00069322  00000+0  11191-2 0  9991", "line2": "2 66838  70.0009 162.3932 0003368 273.7970  86.2832 15.52533977  4976"}}, "geometry": {"type": "Point", "coordinates": [154.11791305504812, -19.483369991582776]}}]}